{"type": "FeatureCollection", "features": [ {"type": "Feature", "properties": {"norad_id": 37427, "name": "FENGYUN 1C DEB", "group": "fengyun-1c-debris", "lat": -49.932214638333136, "lon": -65.38705810465684, "alt_km": 550.8721034276768, "timestamp": "2025-12-09T11:33:55.088968+00:00", "meta": {"OBJECT_NAME": "FENGYUN 1C DEB", "OBJECT_ID": "1999-025EGV", "EPOCH": "2025-11-25T03:26:10.747680", "MEAN_MOTION": 14.97768919, "ECCENTRICITY": 0.01887185, "INCLINATION": 98.6232, "RA_OF_ASC_NODE": 109.1733, "ARG_OF_PERICENTER": 355.7363, "MEAN_ANOMALY": 4.2239, "EPHEMERIS_TYPE": 0, "CLASSIFICATION_TYPE": "U", "NORAD_CAT_ID": 37427, "ELEMENT_SET_NO": 999, "REV_AT_EPOCH": 60059, "BSTAR": 0.00046451943, "MEAN_MOTION_DOT": 7.8e-05, "MEAN_MOTION_DDOT": 0}, "tle": {"line1": "1 37427U 99025EGV 25329.14317995  .00007800  00000+0  46452-3 0  9996", "line2": "2 37427  98.6232 109.1733 0188718 355.7363   4.2239 14.97768919600595"}}, "geometry": {"type": "Point", "coordinates": [-65.38705810465684, -49.932214638333136]}}, {"type": "Feature", "properties": {"norad_id": 37428, "name": "FENGYUN 1C DEB", "group": "fengyun-1c-debris", "lat": 81.99096107387908, "lon": 101.12875620535848, "alt_km": 730.0832121246931, "timestamp": "2025-12-09T11:33:55.088978+00:00", "meta": {"OBJECT_NAME": "FENGYUN 1C DEB", "OBJECT_ID": "1999-025EGW", "EPOCH": "2025-12-08T08:21:22.529088", "MEAN_MOTION": 14.34566274, "ECCENTRICITY": 0.00566929, "INCLINATION": 97.7218, "RA_OF_ASC_NODE": 205.4682, "ARG_OF_PERICENTER": 112.0181, "MEAN_ANOMALY": 248.7043, "EPHEMERIS_TYPE": 0, "CLASSIFICATION_TYPE": "U", "NORAD_CAT_ID": 37428, "ELEMENT_SET_NO": 999, "REV_AT_EPOCH": 63373, "BSTAR": 0.0023264608, "MEAN_MOTION_DOT": 6.657e-05, "MEAN_MOTION_DDOT": 0}, "tle": {"line1": "1 37428U 99025EGW 25342.34817742  .00006657  00000+0  23265-2 0  9994", "line2": "2 37428  97.7218 205.4682 0056692 112.0181 248.7043 14.34566274633731"}}, "geometry": {"type": "Point", "coordinates": [101.12875620535848, 81.99096107387908]}}, {"type": "Feature", "properties": {"norad_id": 37430, "name": "FENGYUN 1C DEB", "group": "fengyun-1c-debris", "lat": -50.72365538961253, "lon": -133.30555308489488, "alt_km": 813.9433193690193, "timestamp": "2025-12-09T11:33:55.088988+00:00", "meta": {"OBJECT_NAME": "FENGYUN 1C DEB", "OBJECT_ID": "1999-025EGY", "EPOCH": "2025-12-05T03:58:16.719456", "MEAN_MOTION": 14.28846273, "ECCENTRICITY": 0.001883, "INCLINATION": 98.7668, "RA_OF_ASC_NODE": 53.2332, "ARG_OF_PERICENTER": 93.5332, "MEAN_ANOMALY": 266.8003, "EPHEMERIS_TYPE": 0, "CLASSIFICATION_TYPE": "U", "NORAD_CAT_ID": 37430, "ELEMENT_SET_NO": 999, "REV_AT_EPOCH": 61593, "BSTAR": 0.0038447795, "MEAN_MOTION_DOT": 9.683e-05, "MEAN_MOTION_DDOT": 0}, "tle": {"line1": "1 37430U 99025EGY 25339.16547129  .00009683  00000+0  38448-2 0  9993", "line2": "2 37430  98.7668  53.2332 0018830  93.5332 266.8003 14.28846273615930"}}, "geometry": {"type": "Point", "coordinates": [-133.30555308489488, -50.72365538961253]}}, {"type": "Feature", "properties": {"norad_id": 37432, "name": "FENGYUN 1C DEB", "group": "fengyun-1c-debris", "lat": 21.09211331244217, "lon": -6.354908514903387, "alt_km": 697.0409073279707, "timestamp": "2025-12-09T11:33:55.088999+00:00", "meta": {"OBJECT_NAME": "FENGYUN 1C DEB", "OBJECT_ID": "1999-025EHA", "EPOCH": "2025-12-06T07:27:47.805408", "MEAN_MOTION": 14.53346656, "ECCENTRICITY": 0.01823259, "INCLINATION": 98.1843, "RA_OF_ASC_NODE": 353.7286, "ARG_OF_PERICENTER": 307.9261, "MEAN_ANOMALY": 50.5575, "EPHEMERIS_TYPE": 0, "CLASSIFICATION_TYPE": "U", "NORAD_CAT_ID": 37432, "ELEMENT_SET_NO": 999, "REV_AT_EPOCH": 8283, "BSTAR": 0.0014568168, "MEAN_MOTION_DOT": 7.499e-05, "MEAN_MOTION_DDOT": 0}, "tle": {"line1": "1 37432U 99025EHA 25340.31096997  .00007499  00000+0  14568-2 0  9996", "line2": "2 37432  98.1843 353.7286 0182325 307.9261  50.5575 14.53346656 82838"}}, "geometry": {"type": "Point", "coordinates": [-6.354908514903387, 21.09211331244217]}}, {"type": "Feature", "properties": {"norad_id": 37435, "name": "FENGYUN 1C DEB", "group": "fengyun-1c-debris", "lat": -62.138908072536665, "lon": 36.59102142271996, "alt_km": 823.2270978856013, "timestamp": "2025-12-09T11:33:55.089009+00:00", "meta": {"OBJECT_NAME": "FENGYUN 1C DEB", "OBJECT_ID": "1999-025EHD", "EPOCH": "2025-11-29T08:44:14.359776", "MEAN_MOTION": 14.22271668, "ECCENTRICITY": 0.00410088, "INCLINATION": 98.6499, "RA_OF_ASC_NODE": 9.9283, "ARG_OF_PERICENTER": 53.3524, "MEAN_ANOMALY": 307.1414, "EPHEMERIS_TYPE": 0, "CLASSIFICATION_TYPE": "U", "NORAD_CAT_ID": 37435, "ELEMENT_SET_NO": 999, "REV_AT_EPOCH": 88749, "BSTAR": 0.00099361212, "MEAN_MOTION_DOT": 2.183e-05, "MEAN_MOTION_DDOT": 0}, "tle": {"line1": "1 37435U 99025EHD 25333.36405509  .00002183  00000+0  99361-3 0  9999", "line2": "2 37435  98.6499   9.9283 0041008  53.3524 307.1414 14.22271668887490"}}, "geometry": {"type": "Point", "coordinates": [36.59102142271996, -62.138908072536665]}}, {"type": "Feature", "properties": {"norad_id": 37436, "name": "FENGYUN 1C DEB", "group": "fengyun-1c-debris", "lat": -31.540962912081138, "lon": -147.5276281296617, "alt_km": 852.7674329395577, "timestamp": "2025-12-09T11:33:55.089020+00:00", "meta": {"OBJECT_NAME": "FENGYUN 1C DEB", "OBJECT_ID": "1999-025EHE", "EPOCH": "2025-12-08T08:57:07.720992", "MEAN_MOTION": 14.06336267, "ECCENTRICITY": 0.00596162, "INCLINATION": 98.9375, "RA_OF_ASC_NODE": 36.9205, "ARG_OF_PERICENTER": 160.2305, "MEAN_ANOMALY": 200.1192, "EPHEMERIS_TYPE": 0, "CLASSIFICATION_TYPE": "U", "NORAD_CAT_ID": 37436, "ELEMENT_SET_NO": 999, "REV_AT_EPOCH": 63937, "BSTAR": 0.0011550832, "MEAN_MOTION_DOT": 1.893e-05, "MEAN_MOTION_DDOT": 0}, "tle": {"line1": "1 37436U 99025EHE 25342.37300603  .00001893  00000+0  11551-2 0  9991", "line2": "2 37436  98.9375  36.9205 0059616 160.2305 200.1192 14.06336267639376"}}, "geometry": {"type": "Point", "coordinates": [-147.5276281296617, -31.540962912081138]}}, {"type": "Feature", "properties": {"norad_id": 37437, "name": "FENGYUN 1C DEB", "group": "fengyun-1c-debris", "lat": -17.88036445286115, "lon": -21.742380183335765, "alt_km": 813.0408035486607, "timestamp": "2025-12-09T11:33:55.089030+00:00", "meta": {"OBJECT_NAME": "FENGYUN 1C DEB", "OBJECT_ID": "1999-025EHF", "EPOCH": "2025-11-30T18:36:25.322976", "MEAN_MOTION": 14.18810149, "ECCENTRICITY": 0.0113368, "INCLINATION": 98.5859, "RA_OF_ASC_NODE": 327.0314, "ARG_OF_PERICENTER": 82.7284, "MEAN_ANOMALY": 94.5607, "EPHEMERIS_TYPE": 0, "CLASSIFICATION_TYPE": "U", "NORAD_CAT_ID": 37437, "ELEMENT_SET_NO": 999, "REV_AT_EPOCH": 63821, "BSTAR": 0.0004989187, "MEAN_MOTION_DOT": 1.064e-05, "MEAN_MOTION_DDOT": 0}, "tle": {"line1": "1 37437U 99025EHF 25334.77529309  .00001064  00000+0  49892-3 0  9993", "line2": "2 37437  98.5859 327.0314 0113368  82.7284  94.5607 14.18810149638211"}}, "geometry": {"type": "Point", "coordinates": [-21.742380183335765, -17.88036445286115]}}, {"type": "Feature", "properties": {"norad_id": 37438, "name": "FENGYUN 1C DEB", "group": "fengyun-1c-debris", "lat": 40.58712820744175, "lon": 14.957980730816777, "alt_km": 857.750083805774, "timestamp": "2025-12-09T11:33:55.089061+00:00", "meta": {"OBJECT_NAME": "FENGYUN 1C DEB", "OBJECT_ID": "1999-025EHG", "EPOCH": "2025-12-05T20:51:01.918944", "MEAN_MOTION": 14.15490394, "ECCENTRICITY": 0.00286627, "INCLINATION": 98.7405, "RA_OF_ASC_NODE": 18.9899, "ARG_OF_PERICENTER": 241.0915, "MEAN_ANOMALY": 118.7383, "EPHEMERIS_TYPE": 0, "CLASSIFICATION_TYPE": "U", "NORAD_CAT_ID": 37438, "ELEMENT_SET_NO": 999, "REV_AT_EPOCH": 60038, "BSTAR": 0.0010628807, "MEAN_MOTION_DOT": 2.041e-05, "MEAN_MOTION_DDOT": 0}, "tle": {"line1": "1 37438U 99025EHG 25339.86877221  .00002041  00000+0  10629-2 0  9999", "line2": "2 37438  98.7405  18.9899 0028662 241.0915 118.7383 14.15490394600388"}}, "geometry": {"type": "Point", "coordinates": [14.957980730816777, 40.58712820744175]}}, {"type": "Feature", "properties": {"norad_id": 37441, "name": "FENGYUN 1C DEB", "group": "fengyun-1c-debris", "lat": 67.99673839082982, "lon": 34.26466820642578, "alt_km": 929.348936450483, "timestamp": "2025-12-09T11:33:55.089073+00:00", "meta": {"OBJECT_NAME": "FENGYUN 1C DEB", "OBJECT_ID": "1999-025EHK", "EPOCH": "2025-12-03T07:03:35.157888", "MEAN_MOTION": 13.14191734, "ECCENTRICITY": 0.0507983, "INCLINATION": 99.1467, "RA_OF_ASC_NODE": 185.4052, "ARG_OF_PERICENTER": 77.3697, "MEAN_ANOMALY": 288.3712, "EPHEMERIS_TYPE": 0, "CLASSIFICATION_TYPE": "U", "NORAD_CAT_ID": 37441, "ELEMENT_SET_NO": 999, "REV_AT_EPOCH": 82048, "BSTAR": 0.00191, "MEAN_MOTION_DOT": 1.323e-05, "MEAN_MOTION_DDOT": 0}, "tle": {"line1": "1 37441U 99025EHK 25337.29415692  .00001323  00000+0  19100-2 0  9993", "line2": "2 37441  99.1467 185.4052 0507983  77.3697 288.3712 13.14191734820480"}}, "geometry": {"type": "Point", "coordinates": [34.26466820642578, 67.99673839082982]}}, {"type": "Feature", "properties": {"norad_id": 37444, "name": "FENGYUN 1C DEB", "group": "fengyun-1c-debris", "lat": 13.762713988814395, "lon": -113.99557303204219, "alt_km": 902.9021179103165, "timestamp": "2025-12-09T11:33:55.089083+00:00", "meta": {"OBJECT_NAME": "FENGYUN 1C DEB", "OBJECT_ID": "1999-025EHN", "EPOCH": "2025-12-08T23:11:43.884960", "MEAN_MOTION": 14.4799779, "ECCENTRICITY": 0.0245148, "INCLINATION": 99.0833, "RA_OF_ASC_NODE": 63.2047, "ARG_OF_PERICENTER": 0.368, "MEAN_ANOMALY": 359.7648, "EPHEMERIS_TYPE": 0, "CLASSIFICATION_TYPE": "U", "NORAD_CAT_ID": 37444, "ELEMENT_SET_NO": 999, "REV_AT_EPOCH": 65096, "BSTAR": 0.00066715, "MEAN_MOTION_DOT": 3.56e-05, "MEAN_MOTION_DDOT": 0}, "tle": {"line1": "1 37444U 99025EHN 25342.96648015  .00003560  00000+0  66715-3 0  9993", "line2": "2 37444  99.0833  63.2047 0245148   0.3680 359.7648 14.47997790650964"}}, "geometry": {"type": "Point", "coordinates": [-113.99557303204219, 13.762713988814395]}}]}